[{"OBJECT_NAME":"GONETS-M 18","OBJECT_ID":"2020-068B","EPOCH":"2026-03-09T23:59:00.572352","MEAN_MOTION":12.42868942,"ECCENTRICITY":0.00185595,"INCLINATION":82.492,"RA_OF_ASC_NODE":48.3521,"ARG_OF_PERICENTER":247.7925,"MEAN_ANOMALY":112.1186,"EPHEMERIS_TYPE":0,"CLASSIFICATION_TYPE":"U","NORAD_CAT_ID":46487,"ELEMENT_SET_NO":999,"REV_AT_EPOCH":24682,"BSTAR":5.3308776e-5,"MEAN_MOTION_DOT":1.7e-7,"MEAN_MOTION_DDOT":0},{"OBJECT_NAME":"SL-8 R\/B","OBJECT_ID":"1986-092J","EPOCH":"2026-03-09T23:02:52.793664","MEAN_MOTION":12.23665408,"ECCENTRICITY":0.01246174,"INCLINATION":74.0132,"RA_OF_ASC_NODE":286.0158,"ARG_OF_PERICENTER":273.5841,"MEAN_ANOMALY":197.2964,"EPHEMERIS_TYPE":0,"CLASSIFICATION_TYPE":"U","NORAD_CAT_ID":17146,"ELEMENT_SET_NO":999,"REV_AT_EPOCH":75557,"BSTAR":0.00071388904,"MEAN_MOTION_DOT":6.4e-7,"MEAN_MOTION_DDOT":0}]
